RS-44 & BREEZE-KM R/B   
1 44909U 19096E   24095.85568142  .00000024  00000+0  54288-4 0  9996
2 44909  82.5221 153.5033 0216759 222.4138 136.0035 12.79728263199598
BY70-2                  
1 45857U 20042B   24096.21901844  .00053258  00000+0  29536-2 0  9996
2 45857  97.9093 186.0372 0005517 131.9135 228.2567 15.13558101203452
SALSAT                  
1 46495U 20068K   24095.83901225  .00005844  00000+0  34586-3 0  9993
2 46495  97.8088  53.3962 0013578 196.7811 163.2971 15.11762864193222
RADFXSAT-2 (AO-109)     
1 47311U 21002C   24095.92680576  .00397761  68564-4  12595-2 0  9994
2 47311  60.6641 347.0121 0014267 103.0651 257.2062 15.90732386179785
UVSQ-SAT                
1 47438U 21006AB  24095.66825399  .00027357  00000+0  68937-3 0  9992
2 47438  97.3371 155.5801 0008405 122.8162 237.3895 15.39823177177392
LEDSAT                  
1 49069U 21073D   24096.14301371  .00012677  00000+0  55829-3 0  9996
2 49069  97.4434 167.9059 0021048 177.8097 182.3234 15.21767637145336
XW-3 (CAS-9)            
1 50466U 21131B   24096.21472286  .00000631  00000+0  21690-3 0  9992
2 50466  98.5278 181.6377 0003790   1.0957 359.0238 14.39464462119505
TEVEL-3                 
1 50988U 22002E   24096.14065311  .00062579  00000+0  11635-2 0  9994
2 50988  97.3881 169.4158 0004773 246.3802 113.6947 15.48673143123681
TEVEL-8                 
1 50989U 22002F   24096.17562546  .00061904  00000+0  11560-2 0  9998
2 50989  97.3897 169.5390 0004738 244.5185 115.5576 15.48550652123681
TEVEL-5                 
1 50998U 22002Q   24096.14415264  .00072897  00000+0  12282-2 0  9994
2 50998  97.3865 170.4070 0005456 239.3911 120.6804 15.51428563123757
TEVEL-6                 
1 50999U 22002R   24096.14647816  .00071690  00000+0  12118-2 0  9993
2 50999  97.3862 170.3884 0005411 239.5748 120.4969 15.51342011123751
TEVEL-1                 
1 51013U 22002AF  24096.16411990  .00062550  00000+0  11681-2 0  9994
2 51013  97.3872 169.3186 0004710 246.5658 113.5098 15.48547109123681
TEVEL-7                 
1 51062U 22002CG  24096.16802743  .00062738  00000+0  11673-2 0  9997
2 51062  97.3893 169.5045 0004835 246.1677 113.9067 15.48651441123684
TEVEL-4                 
1 51063U 22002CH  24096.19570176  .00059003  00000+0  11081-2 0  9997
2 51063  97.3892 169.4587 0004725 246.0206 114.0550 15.48399784123687
TEVEL-2                 
1 51069U 22002CP  24096.13968296  .00059626  00000+0  11077-2 0  9997
2 51069  97.3878 169.3821 0004773 245.7796 114.2956 15.48709488123688
GREENCUBE               
1 53106U 22080B   24092.39201857 -.00000003  00000+0  00000+0 0  9991
2 53106  70.1401 219.1945 0008103 122.4070 237.7374  6.42557363 40333
KUZBASS-300 (RS34S)     
1 53375U 22096F   24096.02179404  .00173533  00000+0  12416-2 0  9997
2 53375  97.3883  14.1381 0005888 116.3676 243.8193 15.73194172 92988
UTMN (RS23S)            
1 53376U 22096G   24096.03878254  .00209931  00000+0  11918-2 0  9996
2 53376  97.3860  14.9861 0005816 121.3329 238.8507 15.78416966 93041
MIET-AIS (RS28S)        
1 53377U 22096H   24096.19432087  .00112829  00000+0  10758-2 0  9994
2 53377  97.3929  13.5104 0004523 109.4802 250.6947 15.66412507 92953
KAI-1 (RS26S)           
1 53378U 22096J   24096.14939905  .00052249  00000+0  74285-3 0  9996
2 53378  97.3986  11.6966 0003080 113.5224 246.6354 15.56221719 92828
ISOI (RS19S)            
1 53381U 22096M   24096.18002929  .00121639  00000+0  10709-2 0  9991
2 53381  97.3944  14.2826 0005383 101.2570 258.9296 15.68357747 93002
CUBESX-HSE-2 (RS21S)    
1 53383U 22096P   24096.03137452  .00202525  00000+0  11970-2 0  9992
2 53383  97.3864  15.1756 0006604 106.0249 254.1745 15.77522602 93056
SIREN (RS30S)           
1 53384U 22096Q   24096.17754472  .00082210  00000+0  93288-3 0  9995
2 53384  97.3956  13.1076 0005262  90.8691 269.3170 15.62079063 92929
CAS-5A (FO-118)         
1 54684U 22167C   24096.17349577  .00019429  00000+0  77076-3 0  9993
2 54684  97.5946 239.5798 0010432  43.2975 316.9080 15.25360793 73156
STRATOSAT-TK 1 (RS52S)  
1 57167U 23091B   24096.17902636  .00010001  00000+0  62282-3 0  9990
2 57167  97.6208 149.5655 0015601  14.8219 345.3464 15.09679478 42532
UMKA 1 (RS40S)          
1 57172U 23091G   24096.16106357  .00004979  00000+0  34093-3 0  9997
2 57172  97.6211 148.9739 0017166  15.2197 344.9543 15.06417859 42494
CUBESX-HSE 3 (RS42S)    
1 57178U 23091N   24096.17182024  .00006331  00000+0  42179-3 0  9997
2 57178  97.6242 149.2488 0017506   9.5892 350.5667 15.07322211 42505
MONITOR-4 (RS57S)       
1 57182U 23091S   24096.13946086  .00005430  00000+0  36577-3 0  9998
2 57182  97.6242 149.0957 0017948  11.8293 348.3352 15.06977687 42496
MONITOR-2 (RS39S)       
1 57184U 23091U   24096.20015938  .00003266  00000+0  22367-3 0  9998
2 57184  97.6245 149.3406 0014269   7.0259 353.1165 15.06695753 42515
SVYATOBOR 1 (RS60S)     
1 57187U 23091X   24096.15471043  .00005493  00000+0  36211-3 0  9995
2 57187  97.6247 149.5584 0013635   3.5638 356.5685 15.07824494 42529
VIZARD-METEO (RS38S)    
1 57189U 23091Z   24096.16920900  .00007065  00000+0  45163-3 0  9992
2 57189  97.6234 149.8193 0012433   1.2713 358.8545 15.08869469 42544
NANOZOND 1 (RS49S)      
1 57190U 23091AA  24096.14224270  .00009127  00000+0  55478-3 0  9990
2 57190  97.6216 150.0668 0010852   8.4672 351.6739 15.10644447 42561
POLYTECH-UNIVERSE 3 (R*)
1 57191U 23091AB  24096.20067561  .00003672  00000+0  25117-3 0  9992
2 57191  97.6212 149.0669 0020258  21.9954 338.2138 15.06582453 42502
UTMN 2 (RS27S)          
1 57203U 23091AP  24096.20607537  .00005709  00000+0  36927-3 0  9993
2 57203  97.6240 149.7685 0012796   2.8413 357.2885 15.08518247 42544
ARCCUBE 1 (RS25S)       
1 57205U 23091AR  24096.16315230  .00011198  00000+0  66666-3 0  9998
2 57205  97.6186 150.1208 0011036   8.5096 351.6318 15.11338920 42572
KUZGTU 1 (RS47S)        
1 57217U 23091AV  24096.17478519  .00005576  00000+0  37302-3 0  9990
2 57217  97.6218 149.1546 0017476  10.9432 349.2172 15.07228357 42500
HADES-D (SO-121)        
1 58567U 23174CY  24096.13089307  .00029884  00000+0  13092-2 0  9997
2 58567  97.4607 172.0563 0014651 130.1132 230.1390 15.21864305 22645
NOAA 15                 
1 25338U 98030A   24096.15256813  .00000196  00000+0  99288-4 0  9998
2 25338  98.5767 124.7820 0010597 172.0375 188.0976 14.26527698347021
NOAA 18                 
1 28654U 05018A   24096.21224410  .00000232  00000+0  14787-3 0  9992
2 28654  98.8767 173.7796 0013178 269.2980  90.6682 14.13160221972952
NOAA 19                 
1 33591U 09005A   24096.15352734  .00000238  00000+0  15209-3 0  9998
2 33591  99.0553 151.1580 0014670 135.8680 224.3665 14.12961445781319
METOP-B                 
1 38771U 12049A   24096.18209693  .00000137  00000+0  82161-4 0  9993
2 38771  98.6350 155.0176 0000801 131.2304 228.8943 14.21497529599178
SARAL                   
1 39086U 13009A   24095.94446161  .00000161  00000+0  75760-4 0  9990
2 39086  98.5515 282.0734 0002795 123.4410 236.7041 14.32375513580599
METOP-C                 
1 43689U 18087A   24096.14808617  .00000131  00000+0  79597-4 0  9995
2 43689  98.6870 156.2911 0001251 298.1105  61.9945 14.21509206280745
ANGELS                  
1 44876U 19092D   24095.78940120  .00006219  00000+0  24727-3 0  9993
2 44876  97.4773 284.3143 0009561 212.5055 147.5596 15.25615627238161
GAZELLE                 
1 54023U 22127A   24095.91946890  .00000228  00000+0  82224-4 0  9997
2 54023  98.3424  91.8509 0014678  92.5446 267.7424 14.42037059 78567
EOS-6 (OCEANSAT-3)      
1 54361U 22158A   24096.20356919  .00000416  00000+0  12644-3 0  9993
2 54361  98.3476 194.2316 0001498  92.9165 267.2199 14.46977746 71715
BEIDOU-2 IGSO-1 (C06)   
1 36828U 10036A   24095.65295928 -.00000130  00000+0  00000+0 0  9996
2 36828  54.2448 170.2362 0040114 198.5679 164.3286  1.00247881 50154
BEIDOU-2 G4 (C04)       
1 37210U 10057A   24095.89228466 -.00000119  00000+0  00000+0 0  9991
2 37210   1.6694  67.6052 0004277 207.0165  40.2369  1.00272787 49234
BEIDOU-2 IGSO-2 (C07)   
1 37256U 10068A   24095.86486918 -.00000179  00000+0  00000+0 0  9994
2 37256  49.0150 281.7079 0032262 209.3130 122.2755  1.00273272 48731
BEIDOU-2 IGSO-3 (C08)   
1 37384U 11013A   24095.88444951 -.00000176  00000+0  00000+0 0  9997
2 37384  61.2519  47.8179 0026004 181.5605  31.6272  1.00276691 47616
BEIDOU-2 IGSO-4 (C09)   
1 37763U 11038A   24095.71598818 -.00000079  00000+0  00000+0 0  9991
2 37763  54.5515 172.8273 0122586 227.9485 146.7485  1.00274217 46597
BEIDOU-2 IGSO-5 (C10)   
1 37948U 11073A   24095.88687810 -.00000127  00000+0  00000+0 0  9998
2 37948  49.1460 281.3898 0094465 219.3112 107.2899  1.00267512 45079
BEIDOU-2 G5 (C05)       
1 38091U 12008A   24096.15848674  .00000051  00000+0  00000+0 0  9990
2 38091   1.8977  70.1665 0009666 259.8726 339.6212  1.00270837 44424
BEIDOU-2 M3 (C11)       
1 38250U 12018A   24094.29602879 -.00000051  00000+0  00000+0 0  9997
2 38250  56.3856 331.8328 0021359 267.8585  91.9472  1.86231198 80955
BEIDOU-2 M4 (C12)       
1 38251U 12018B   24095.30045940 -.00000050  00000+0  00000+0 0  9990
2 38251  56.2932 331.0765 0012323 274.2219  85.6887  1.86231932 80972
BEIDOU-2 M6 (C14)       
1 38775U 12050B   24095.54686136  .00000059  00000+0  00000+0 0  9999
2 38775  55.8566  89.6228 0014701 329.7341  30.2031  1.86231019 78346
BEIDOU-2 G6 (C02)       
1 38953U 12059A   24096.09191446 -.00000181  00000+0  00000+0 0  9999
2 38953   2.3725  80.9514 0011091 305.6083 284.4263  1.00269034 41990
BEIDOU-3S IGSO-1S (C31) 
1 40549U 15019A   24093.49627931 -.00000141  00000+0  00000+0 0  9992
2 40549  50.7124 305.0807 0035750 191.9262 328.0338  1.00265353 32991
BEIDOU-3S M2S (C58)     
1 40748U 15037A   24093.89049794 -.00000049  00000+0  00000+0 0  9999
2 40748  55.5282 329.5914 0008370 264.4316  95.5221  1.86233025 59120
